NORAD_CAT_ID,OBJECT_NAME,OBJECT_TYPE,EPOCH,MEAN_MOTION,ECCENTRICITY,INCLINATION,RA_OF_ASC_NODE,ARG_OF_PERICENTER,MEAN_ANOMALY,BSTAR,MEAN_MOTION_DOT,MEAN_MOTION_DDOT,TLE_LINE0,TLE_LINE1,TLE_LINE2,SEMIMAJOR_AXIS,PERIOD,APOGEE,PERIGEE,DECAYED
49410.0,STARLINK-3147,PAYLOAD,2023-10-28 06:44:30,15.08840095,0.0001515,53.2151,145.1244,80.8651,279.2512,1.9313e-05,1.9e-07,0.0,0 STARLINK-3147,1 49410U 21104C   23301.28090908  .00000019  00000-0  19313-4 0  9992,2 49410  53.2151 145.1244 0001515  80.8651 279.2512 15.08840095108285,6917.88,95.438,540.793,538.697,0.0
49410.0,STARLINK-3147,PAYLOAD,2023-10-28 21:02:59,15.08835752,0.0001581,53.2171,142.4489,84.6048,275.5125,-1.9073e-05,-5.92e-06,0.0,0 STARLINK-3147,1 49410U 21104C   23301.87707920 -.00000592  00000-0 -19073-4 0  9997,2 49410  53.2171 142.4489 0001581  84.6048 275.5125 15.08835752109467,6917.893,95.438,540.852,538.665,0.0
49410.0,STARLINK-3147,PAYLOAD,2023-10-29 06:35:18,15.08841599,0.0001594,53.2173,140.6647,85.8989,274.2185,8.6229e-05,1.085e-05,0.0,0 STARLINK-3147,1 49410U 21104C   23302.27451420  .00001085  00000-0  86229-4 0  9996,2 49410  53.2173 140.6647 0001594  85.8989 274.2185 15.08841599109521,6917.876,95.437,540.843,538.638,0.0
49410.0,STARLINK-3147,PAYLOAD,2023-10-29 22:29:09,15.08841552,0.0001568,53.2156,137.6913,85.8728,274.2443,0.0005695,8.788e-05,0.0,0 STARLINK-3147,1 49410U 21104C   23302.93691362  .00008788  00000-0  56950-3 0  9994,2 49410  53.2156 137.6913 0001568  85.8728 274.2443 15.08841552108532,6917.876,95.437,540.825,538.656,0.0
49410.0,STARLINK-3147,PAYLOAD,2023-10-30 01:39:55,15.08854153,0.0001462,53.2152,137.096,87.294,272.822,0.00040356,6.143e-05,0.0,0 STARLINK-3147,1 49410U 21104C   23303.06938780  .00006143  00000-0  40356-3 0  9993,2 49410  53.2152 137.0960 0001462  87.2940 272.8220 15.08854153109640,6917.837,95.437,540.714,538.691,0.0
49410.0,STARLINK-3147,PAYLOAD,2023-10-30 06:26:05,15.08834197,9.4e-05,53.2165,136.2048,91.1854,268.9246,-4.3212e-06,-3.56e-06,0.0,0 STARLINK-3147,1 49410U 21104C   23303.26811374 -.00000356  00000-0 -43212-5 0  9992,2 49410  53.2165 136.2048 0000940  91.1854 268.9246 15.08834197109673,6917.898,95.438,540.413,539.113,0.0
49410.0,STARLINK-3147,PAYLOAD,2023-10-30 19:09:10,15.08840865,0.0001365,53.2153,133.8251,90.9005,269.2144,0.00019472,2.812e-05,0.0,0 STARLINK-3147,1 49410U 21104C   23303.79803547  .00002812  00000-0  19472-3 0  9999,2 49410  53.2153 133.8251 0001365  90.9005 269.2144 15.08840865108664,6917.878,95.437,540.687,538.798,0.0
49410.0,STARLINK-3147,PAYLOAD,2023-10-30 22:19:56,15.08845379,0.0001438,53.2149,133.2302,90.3328,269.7829,0.0002566,3.799e-05,0.0,0 STARLINK-3147,1 49410U 21104C   23303.93051374  .00003799  00000-0  25660-3 0  9999,2 49410  53.2149 133.2302 0001438  90.3328 269.7829 15.08845379109776,6917.864,95.437,540.724,538.734,0.0
49410.0,STARLINK-3147,PAYLOAD,2023-10-31 12:38:24,15.08839659,0.0001467,53.2148,130.5532,91.7407,268.3753,0.00025431,3.762e-05,0.0,0 STARLINK-3147,1 49410U 21104C   23304.52667670  .00003762  00000-0  25431-3 0  9993,2 49410  53.2148 130.5532 0001467  91.7407 268.3753 15.08839659109860,6917.881,95.438,540.761,538.732,0.0
49410.0,STARLINK-3147,PAYLOAD,2023-10-31 18:59:57,15.08841664,0.0001467,53.2152,129.3637,91.6418,268.4743,0.00036658,5.551e-05,0.0,0 STARLINK-3147,1 49410U 21104C   23304.79163721  .00005551  00000-0  36658-3 0  9991,2 49410  53.2152 129.3637 0001467  91.6418 268.4743 15.08841664108811,6917.875,95.437,540.755,538.725,0.0
49410.0,STARLINK-3147,PAYLOAD,2023-11-01 18:50:44,15.08848475,0.0001451,53.2158,124.9033,92.4076,267.7082,0.0003193,4.799e-05,0.0,0 STARLINK-3147,1 49410U 21104C   23305.78523420  .00004799  00000-0  31930-3 0  9998,2 49410  53.2158 124.9033 0001451  92.4076 267.7082 15.08848475110054,6917.854,95.437,540.723,538.716,0.0
49410.0,STARLINK-3147,PAYLOAD,2023-11-02 12:19:58,15.08844415,0.0001452,53.2169,121.6328,88.9193,271.1965,0.00015307,2.149e-05,0.0,0 STARLINK-3147,1 49410U 21104C   23306.51387523  .00002149  00000-0  15307-3 0  9999,2 49410  53.2169 121.6328 0001452  88.9193 271.1965 15.08844415110169,6917.867,95.437,540.736,538.727,0.0
49410.0,STARLINK-3147,PAYLOAD,2023-11-02 21:52:17,15.08844864,0.0001408,53.2166,119.8476,89.2586,270.8568,0.00012179,1.651e-05,0.0,0 STARLINK-3147,1 49410U 21104C   23306.91131397  .00001651  00000-0  12179-3 0  9990,2 49410  53.2166 119.8476 0001408  89.2586 270.8568 15.08844864109138,6917.866,95.437,540.705,538.756,0.0
49410.0,STARLINK-3147,PAYLOAD,2023-11-03 04:13:50,15.0883473,0.0001462,53.2161,118.6583,88.0802,272.0358,-4.0643e-05,-9.35e-06,0.0,0 STARLINK-3147,1 49410U 21104C   23307.17627793 -.00000935  00000-0 -40643-4 0  9993,2 49410  53.2161 118.6583 0001462  88.0802 272.0358 15.08834730110265,6917.896,95.438,540.773,538.75,0.0
49410.0,STARLINK-3147,PAYLOAD,2023-11-03 13:46:09,15.08838235,0.0001377,53.2164,116.8745,90.394,269.721,1.988e-05,2.8e-07,0.0,0 STARLINK-3147,1 49410U 21104C   23307.57371751  .00000028  00000-0  19880-4 0  9997,2 49410  53.2164 116.8745 0001377  90.3940 269.7210 15.08838235109231,6917.886,95.438,540.703,538.798,0.0
49410.0,STARLINK-3147,PAYLOAD,2023-11-03 21:43:04,15.08843304,0.0001349,53.2163,115.3881,90.6735,269.4412,9.3201e-05,1.196e-05,0.0,0 STARLINK-3147,1 49410U 21104C   23307.90491510  .00001196  00000-0  93201-4 0  9996,2 49410  53.2163 115.3881 0001349  90.6735 269.4412 15.08843304109288,6917.87,95.437,540.669,538.802,0.0
49410.0,STARLINK-3147,PAYLOAD,2023-11-04 12:01:33,15.08839017,0.0001308,53.2164,112.7117,90.7353,269.3789,9.1094e-05,1.162e-05,0.0,0 STARLINK-3147,1 49410U 21104C   23308.50107887  .00001162  00000-0  91094-4 0  9995,2 49410  53.2164 112.7117 0001308  90.7353 269.3789 15.08839017109376,6917.883,95.438,540.653,538.844,0.0
49410.0,STARLINK-3147,PAYLOAD,2023-11-04 18:23:05,15.08845392,0.0001314,53.2164,111.5223,89.8761,270.2381,0.00022988,3.373e-05,0.0,0 STARLINK-3147,1 49410U 21104C   23308.76603652  .00003373  00000-0  22988-3 0  9995,2 49410  53.2164 111.5223 0001314  89.8761 270.2381 15.08845392110509,6917.864,95.437,540.638,538.82,0.0
49410.0,STARLINK-3147,PAYLOAD,2023-11-05 13:27:43,15.08844994,0.0001306,53.2161,107.954,84.8326,275.2815,0.00018604,2.675e-05,0.0,0 STARLINK-3147,1 49410U 21104C   23309.56091548  .00002675  00000-0  18604-3 0  9993,2 49410  53.2161 107.9540 0001306  84.8326 275.2815 15.08844994109535,6917.865,95.437,540.634,538.827,0.0
49410.0,STARLINK-3147,PAYLOAD,2023-11-05 16:38:29,15.08849961,0.0001488,53.2163,107.3596,81.979,278.1371,0.00028368,4.231e-05,0.0,0 STARLINK-3147,1 49410U 21104C   23309.69339417  .00004231  00000-0  28368-3 0  9995,2 49410  53.2163 107.3596 0001488  81.9790 278.1371 15.08849961109556,6917.85,95.437,540.744,538.686,0.0
49410.0,STARLINK-3147,PAYLOAD,2023-11-06 03:46:10,15.0885939,0.0001479,53.2159,105.2788,86.3742,273.7419,0.00040887,6.229e-05,0.0,0 STARLINK-3147,1 49410U 21104C   23310.15706831  .00006229  00000-0  40887-3 0  9995,2 49410  53.2159 105.2788 0001479  86.3742 273.7419 15.08859390110718,6917.821,95.436,540.709,538.663,0.0
49410.0,STARLINK-3147,PAYLOAD,2023-11-06 14:53:52,15.08856445,0.0001446,53.2147,103.197,85.6481,274.4677,0.00022458,3.29e-05,0.0,0 STARLINK-3147,1 49410U 21104C   23310.62074441  .00003290  00000-0  22458-3 0  9991,2 49410  53.2147 103.1970 0001446  85.6481 274.4677 15.08856445109698,6917.83,95.437,540.695,538.695,0.0
49410.0,STARLINK-3147,PAYLOAD,2023-11-06 18:04:38,15.08862424,0.0001333,53.2158,102.5994,88.0086,272.1058,0.00029637,4.435e-05,0.0,0 STARLINK-3147,1 49410U 21104C   23310.75322026  .00004435  00000-0  29637-3 0  9998,2 49410  53.2158 102.5994 0001333  88.0086 272.1058 15.08862424109717,6917.812,95.436,540.599,538.755,0.0
49410.0,STARLINK-3147,PAYLOAD,2023-11-07 03:36:57,15.08838554,0.000132,53.2157,100.8179,92.8104,267.3039,-0.00014731,-2.631e-05,0.0,0 STARLINK-3147,1 49410U 21104C   23311.15066802 -.00002631  00000-0 -14731-3 0  9997,2 49410  53.2157 100.8179 0001320  92.8104 267.3039 15.08838554110862,6917.885,95.438,540.663,538.837,0.0
49410.0,STARLINK-3147,PAYLOAD,2023-11-07 09:58:31,15.08819087,0.0001721,53.2158,99.6285,94.1592,265.9597,-0.00042969,-7.116e-05,0.0,0 STARLINK-3147,1 49410U 21104C   23311.41563852 -.00007116  00000-0 -42969-3 0  9990,2 49410  53.2158  99.6285 0001721  94.1592 265.9597 15.08819087110905,6917.944,95.439,541.0,538.619,0.0
49410.0,STARLINK-3147,PAYLOAD,2023-11-08 03:27:46,15.08819982,0.0001234,53.2176,96.357,107.7367,252.376,-0.00016904,-2.976e-05,0.0,0 STARLINK-3147,1 49410U 21104C   23312.14428688 -.00002976  00000-0 -16904-3 0  9997,2 49410  53.2176  96.3570 0001234 107.7367 252.3760 15.08819982111015,6917.942,95.439,540.66,538.953,0.0
49410.0,STARLINK-3147,PAYLOAD,2023-11-08 14:35:28,15.08838267,0.0001185,53.2167,94.2742,82.8466,277.2661,0.00015774,2.223e-05,0.0,0 STARLINK-3147,1 49410U 21104C   23312.60796338  .00002223  00000-0  15774-3 0  9995,2 49410  53.2167  94.2742 0001185  82.8466 277.2661 15.08838267109998,6917.886,95.438,540.57,538.931,0.0
49410.0,STARLINK-3147,PAYLOAD,2023-11-08 16:10:51,15.0883626,0.0001431,53.2177,93.9764,107.7156,252.3992,0.00014763,2.062e-05,0.0,0 STARLINK-3147,1 49410U 21104C   23312.67420623  .00002062  00000-0  14763-3 0  9991,2 49410  53.2177  93.9764 0001431 107.7156 252.3992 15.08836260111092,6917.892,95.438,540.747,538.767,0.0
49410.0,STARLINK-3147,PAYLOAD,2023-11-09 09:40:05,15.08857003,0.0001277,53.2179,90.7122,79.9384,280.1752,0.00014679,2.05e-05,0.0,0 STARLINK-3147,1 49410U 21104C   23313.40283809  .00002050  00000-0  14679-3 0  9999,2 49410  53.2179  90.7122 0001277  79.9384 280.1752 15.08857003111202,6917.828,95.436,540.577,538.81,0.0
49410.0,STARLINK-3147,PAYLOAD,2023-11-09 14:26:15,15.08835756,0.0001526,53.2178,89.8168,102.0062,258.1102,0.00043865,6.699e-05,0.0,0 STARLINK-3147,1 49410U 21104C   23313.60157344  .00006699  00000-0  43865-3 0  9997,2 49410  53.2178  89.8168 0001526 102.0062 258.1102 15.08835756110145,6917.893,95.438,540.814,538.703,0.0
